KUIPER-00074            
1 64821U 25151F   26001.03837353  .00006390  00000+0  86511-3 0  9997
2 64821  51.9004 229.7456 0013942  50.7740 309.4457 14.79955209 25425
KUIPER-00075            
1 64822U 25151G   25365.78973266  .00027148  00000+0  67791-3 0  9999
2 64822  51.8717 191.6760 0003476  51.6213 308.5086 15.39962136 25935
KUIPER-00076            
1 64823U 25151H   25365.83308549  .00006828  00000+0  92414-3 0  9994
2 64823  51.8994 233.1464 0005474  51.4731 308.6721 14.79912890 25368
KUIPER-00077            
1 64824U 25151J   26001.03033099 -.00003052  00000+0 -37177-3 0  9993
2 64824  51.9029 237.2822 0006286  16.8660 343.2510 14.79869530 25329
KUIPER-00078            
1 64825U 25151K   26001.06677663  .00006834  00000+0  92373-3 0  9996
2 64825  51.8996 234.6134 0008821  69.3541 290.8367 14.79959842 25364
KUIPER-00079            
1 64826U 25151L   26001.02752850 -.00008239  00000+0 -10517-2 0  9997
2 64826  51.8992 239.7696 0011881  21.5292 338.6168 14.79916965 26486
KUIPER-00080            
1 64827U 25151M   25365.85875922  .00006932  00000+0  93650-3 0  9993
2 64827  51.8989 240.5221 0006414  41.3382 318.8065 14.79965019 25268
KUIPER-00082            
1 64828U 25151N   26001.04113425  .00011284  00000+0  15065-2 0  9995
2 64828  51.9005 227.2353 0005466  70.6983 289.4570 14.79932855 25463
KUIPER-00083            
1 64829U 25151P   26001.03298063  .00006474  00000+0  87705-3 0  9993
2 64829  51.9001 234.7635 0011265  23.6401 336.5077 14.79924359 26549
KUIPER-00084            
1 64830U 25151Q   26001.33335648 -.00040770  00000+0 -53530-2 0  9996
2 64830  51.8994 243.4209 0008973   0.4383 218.6243 14.79887109  5081
KUIPER-00085            
1 64831U 25151R   26001.61514556  .00006925  00000+0  93689-3 0  9997
2 64831  51.9021 224.7142 0008043  44.2456 315.9149 14.79904618 25541
KUIPER-00086            
1 64832U 25151S   26001.06402003  .00007061  00000+0  95367-3 0  9997
2 64832  51.8999 237.1337 0011097  20.5230 339.6176 14.79930701 25320
KUIPER-00087            
1 64833U 25151T   26001.62314951 -.00003816  00000+0 -47244-3 0  9991
2 64833  51.8996 217.1486 0001174 145.1188 214.9852 14.79874986 25645
KUIPER-00089            
1 64834U 25151U   26001.61782309  .00006125  00000+0  83127-3 0  9991
2 64834  51.8983 222.1803 0002214 108.3941 251.7262 14.79958958 25584
KUIPER-00090            
1 64835U 25151V   25365.98065779 -.00005603  00000+0 -76502-3 0  9990
2 64835  51.8972 217.1552 0004011 120.2220 239.9139 14.76603021 25595
KUIPER-00091            
1 64836U 25151W   26001.62043436  .00005480  00000+0  74660-3 0  9990
2 64836  51.8989 219.6740 0008585  75.4649 284.7265 14.79960378 25611
KUIPER-00092            
1 64837U 25151X   26001.00463983  .00014022  00000+0  18625-2 0  9996
2 64837  51.9007 229.8947 0003280  63.2283 296.9015 14.79977499 26635
KUIPER-00093            
1 64838U 25151Y   26001.00183417  .00006328  00000+0  85767-3 0  9990
2 64838  51.8993 232.3928 0003326  76.8391 283.2942 14.79965608 25386
KUIPER-00094            
1 64839U 25151Z   25365.98189654  .00011030  00000+0  78489-3 0  9998
2 64839  51.8881 213.8255 0004519  56.0168 304.1234 15.05078236 25645
KUIPER-00081            
1 65132U 25171A   26001.66667824  .00035914  00000+0  43560-2 0  9998
2 65132  51.8991  84.5452 0000715  77.3741 242.9108 14.83243393  5890
KUIPER-00088            
1 65133U 25171B   26001.56687209  .00006506  00000+0  94791-3 0  9995
2 65133  51.9004 102.9738 0007667 256.9244 103.0861 14.76820543 22842
KUIPER-00095            
1 65134U 25171C   26001.48078764  .00011932  00000+0  10731-2 0  9997
2 65134  51.8924  85.9056 0004344 263.3089  96.7385 14.96001525 23072
KUIPER-00096            
1 65135U 25171D   26001.48512577  .00009945  00000+0  13304-2 0  9993
2 65135  51.8999  95.2633 0009985 288.5564  71.4313 14.79946276 22941
KUIPER-00097            
1 65136U 25171E   26001.54996267  .00012744  00000+0  16938-2 0  9990
2 65136  51.9028  97.5939 0009606 288.5671  71.4247 14.80002483 22906
KUIPER-00098            
1 65137U 25171F   26001.47962953 -.00002473  00000+0 -29510-3 0  9999
2 65137  51.8999 100.2868 0006825 276.4408  83.5777 14.79942785 22212
KUIPER-00099            
1 65138U 25171G   26001.45671679  .00000458  00000+0  89110-4 0  9992
2 65138  51.9038  90.3626 0001075  15.0249 345.0745 14.79944205 23009
KUIPER-00100            
1 65139U 25171H   26001.48452981 -.00040080  00000+0 -54015-2 0  9990
2 65139  51.9017  87.6369 0000650  97.7273 262.3763 14.78815717 23041
KUIPER-00102            
1 65140U 25171J   26001.55804351  .00000920  00000+0  14964-3 0  9999
2 65140  51.8992  89.9431 0000662 119.6456 240.4573 14.79944618 23016
KUIPER-00103            
1 65141U 25171K   26001.50538483  .00009449  00000+0  12661-2 0  9991
2 65141  51.8989 107.6644 0005338 269.0119  91.0231 14.79948239 22763
KUIPER-00104            
1 65142U 25171L   26001.45930329 -.00001928  00000+0 -24300-3 0  9991
2 65142  51.9037  94.6993 0004162 318.4972  41.5673 14.76613760 22946
KUIPER-00105            
1 65143U 25171M   26001.47694544  .00003246  00000+0  45428-3 0  9997
2 65143  51.9016 102.8640 0011343 244.7510 115.2277 14.79944882 22835
KUIPER-00106            
1 65144U 25171N   26001.48594891  .00012748  00000+0  11226-2 0  9998
2 65144  51.8948 100.2701 0008564 236.1785 123.8370 14.96753149 22875
KUIPER-00107            
1 65145U 25171P   26001.66667824  .00034524  00000+0  43622-2 0  9997
2 65145  51.9006  84.4807 0001582 217.1003 325.1070 14.81557593  3307
KUIPER-00108            
1 65146U 25171Q   26001.44769404  .00007074  00000+0  95195-3 0  9994
2 65146  51.9032  97.9280 0008170 251.5132 108.4942 14.80098025 22902
KUIPER-00109            
1 65147U 25171R   26001.55527608  .00006302  00000+0  85400-3 0  9996
2 65147  51.9042  92.4043 0011413 268.6482  91.3173 14.79950609 22989
KUIPER-00110            
1 65148U 25171S   26001.57564802  .00010558  00000+0  14099-2 0  9999
2 65148  51.9012 104.9137 0002223 290.5297  69.5426 14.79989319 22806
KUIPER-00111            
1 65149U 25171T   26001.60392691  .00005208  00000+0  71126-3 0  9990
2 65149  51.8983 109.7171 0007883 253.3358 106.6739 14.79945960 22743
KUIPER-00112            
1 65150U 25171U   26001.45406512 -.00003521  00000+0 -43305-3 0  9999
2 65150  51.9031  92.9151 0009431 307.4913  52.5191 14.79872220 22963
KUIPER-00114            
1 65151U 25171V   26001.60128537  .00002844  00000+0  40237-3 0  9991
2 65151  51.8990 112.2704 0005265 236.6689 123.3769 14.79891136 22708
KUIPER-00115            
1 65152U 25171W   26001.47427557  .00008915  00000+0  11951-2 0  9996
2 65152  51.9008 105.3133 0009090 264.9530  95.0395 14.79977508 22795
KUIPER-00116            
1 65153U 25171X   26001.50267195  .00003118  00000+0  43772-3 0  9998
2 65153  51.8996 110.2308 0009064 231.2609 128.7544 14.79943691 22724
KUIPER-00118            
1 65154U 25171Y   26001.49999690  .00009681  00000+0  12967-2 0  9991
2 65154  51.9004 112.6975 0000542 248.8355 111.2550 14.79945701 22690
KUIPER-00119            
1 65155U 25171Z   26001.58106895  .00010336  00000+0  13824-2 0  9991
2 65155  51.9009  99.9230 0007478 260.7661  99.2456 14.79930326 22872
KUIPER-00120            
1 65762U 25217A   26001.66667824 -.00021861  00000+0 -30864-2 0  9999
2 65762  51.8995 348.3506 0003365  84.0781  40.9867 14.76536740  5315
KUIPER-00132            
1 65763U 25217B   26001.13545716  .00064625  00000+0  17049-2 0  9990
2 65763  51.8626 330.8992 0008218  78.2634 281.9274 15.37841781 15026
KUIPER-00133            
1 65764U 25217C   26001.37892867 -.00003492  00000+0 -42833-3 0  9996
2 65764  51.9056 350.7510 0011388  92.2892 267.9375 14.79939336 14772
KUIPER-00139            
1 65765U 25217D   26001.31050526  .00015169  00000+0  11613-2 0  9992
2 65765  51.8864 342.3514 0008868  87.3116 272.8871 15.02016246 14884
KUIPER-00142            
1 65766U 25217E   26001.66667824 -.00101869  00000+0 -92295-2 0  9996
2 65766  51.9209 332.6824 0003103 111.2008  41.4566 14.95426967  5392
KUIPER-00145            
1 65767U 25217F   26001.66667824 -.01052772  00000+0 -12191+0 0  9990
2 65767  51.8988 334.8074 0008197  81.5034 311.4252 14.88287397  4747
KUIPER-00147            
1 65768U 25217G   26001.66667824 -.01027564  00000+0 -12075+0 0  9993
2 65768  51.8979 337.2711 0010655  88.8950 152.7160 14.87594179  4025
KUIPER-00148            
1 65769U 25217H   26001.40945719  .00027658  00000+0  17430-2 0  9992
2 65769  51.8791 336.3933 0010354 111.3949 248.8131 15.08901217 14979
KUIPER-00150            
1 65770U 25217J   26001.17898354  .00008953  00000+0  12010-2 0  9996
2 65770  51.9031 349.1298 0000404 105.3683 254.7324 14.79960522 14777
KUIPER-00151            
1 65771U 25217K   26001.66667824 -.00022657  00000+0 -29091-2 0  9993
2 65771  51.9019 339.4761 0000694 100.2862 293.5549 14.80558294  5754
KUIPER-00152            
1 65772U 25217L   26001.66667824 -.01274523  00000+0 -78352-1 0  9999
2 65772  51.8880 329.3651 0002441 104.3508 233.0372 15.12901750  5613
KUIPER-00153            
1 65773U 25217M   26001.13860404  .00026119  00000+0  15244-2 0  9996
2 65773  51.8781 341.9731 0013537  89.6971 270.5556 15.11695049 14878
KUIPER-00155            
1 65774U 25217N   26001.66667824  .00046774  00000+0  14941-2 0  9998
2 65774  51.8682 328.4374 0008016  95.2841 292.7161 15.31976423  4616
KUIPER-00156            
1 65775U 25217P   26001.66667824  .00048273  00000+0  17649-2 0  9993
2 65775  51.8754 327.7135 0002595 111.6602 266.0392 15.27599717  5307
KUIPER-00158            
1 65776U 25217Q   26001.35329102  .00007506  00000+0  10121-2 0  9996
2 65776  51.8986 343.3552 0001088  49.9231 310.1827 14.79951108 14877
KUIPER-00163            
1 65777U 25217R   26001.66667824 -.00016015  00000+0 -20783-2 0  9999
2 65777  51.8981 344.4721 0000713 126.5133 118.6722 14.79903102  4875
